{
  "type": "FeatureCollection",
  "features": [
    {
      "type": "Feature",
      "properties": {
        "norad_id": 66537,
        "name": "STARLINK-35582",
        "group": "last-30-days",
        "lat": 22.81916217326959,
        "lon": 168.3542094098444,
        "alt_km": 437.29692839787003,
        "timestamp": "2025-12-19T08:58:48.081492+00:00",
        "meta_object_name": "STARLINK-35582",
        "meta_object_id": "2025-265X",
        "meta_epoch": "2025-12-19T00:00:02.000160",
        "meta_mean_motion": 15.44041247,
        "meta_eccentricity": 0.00015104,
        "meta_inclination": 43,
        "meta_ra_of_asc_node": 17.3597,
        "meta_arg_of_pericenter": 250.5619,
        "meta_mean_anomaly": 333.9724,
        "meta_ephemeris_type": 0,
        "meta_classification_type": "U",
        "meta_norad_cat_id": 66537,
        "meta_element_set_no": 999,
        "meta_rev_at_epoch": 600,
        "meta_bstar": -0.062220489,
        "meta_mean_motion_dot": -0.02563894,
        "meta_mean_motion_ddot": 0,
        "tle_line1": "1 66537U 25265X   25353.00002315 -.02563894  00000+0 -62220-1 0  9997",
        "tle_line2": "2 66537  43.0000  17.3597 0001510 250.5619 333.9724 15.44041247  6002"
      },
      "geometry": {
        "type": "Point",
        "coordinates": [
          168.3542094098444,
          22.81916217326959
        ]
      }
    },
    {
      "type": "Feature",
      "properties": {
        "norad_id": 66538,
        "name": "STARLINK-35577",
        "group": "last-30-days",
        "lat": 0.9406820616163634,
        "lon": -165.89919779008986,
        "alt_km": 413.7560665395549,
        "timestamp": "2025-12-19T08:58:48.081503+00:00",
        "meta_object_name": "STARLINK-35577",
        "meta_object_id": "2025-265Y",
        "meta_epoch": "2025-12-17T09:50:26.132352",
        "meta_mean_motion": 15.50591082,
        "meta_eccentricity": 0.00013928,
        "meta_inclination": 43.001,
        "meta_ra_of_asc_node": 26.6049,
        "meta_arg_of_pericenter": 263.8064,
        "meta_mean_anomaly": 96.2638,
        "meta_ephemeris_type": 0,
        "meta_classification_type": "U",
        "meta_norad_cat_id": 66538,
        "meta_element_set_no": 999,
        "meta_rev_at_epoch": 448,
        "meta_bstar": 0.0015140009,
        "meta_mean_motion_dot": 0.00089538,
        "meta_mean_motion_ddot": 0,
        "tle_line1": "1 66538U 25265Y   25351.41002468  .00089538  00000+0  15140-2 0  9994",
        "tle_line2": "2 66538  43.0010  26.6049 0001392 263.8064  96.2638 15.50591082  4485"
      },
      "geometry": {
        "type": "Point",
        "coordinates": [
          -165.89919779008986,
          0.9406820616163634
        ]
      }
    },
    {
      "type": "Feature",
      "properties": {
        "norad_id": 66539,
        "name": "STARLINK-35697",
        "group": "last-30-days",
        "lat": 1.500394307613239,
        "lon": -166.49598846282802,
        "alt_km": 416.34819538642296,
        "timestamp": "2025-12-19T08:58:48.081514+00:00",
        "meta_object_name": "STARLINK-35697",
        "meta_object_id": "2025-265Z",
        "meta_epoch": "2025-12-18T12:06:52.643808",
        "meta_mean_motion": 15.50318925,
        "meta_eccentricity": 0.00012809,
        "meta_inclination": 43.0002,
        "meta_ra_of_asc_node": 20.1983,
        "meta_arg_of_pericenter": 281.5307,
        "meta_mean_anomaly": 78.5409,
        "meta_ephemeris_type": 0,
        "meta_classification_type": "U",
        "meta_norad_cat_id": 66539,
        "meta_element_set_no": 999,
        "meta_rev_at_epoch": 465,
        "meta_bstar": -0.0022901709,
        "meta_mean_motion_dot": -0.00131246,
        "meta_mean_motion_ddot": 0,
        "tle_line1": "1 66539U 25265Z   25352.50477597 -.00131246  00000+0 -22902-2 0  9995",
        "tle_line2": "2 66539  43.0002  20.1983 0001280 281.5307  78.5409 15.50318925  4657"
      },
      "geometry": {
        "type": "Point",
        "coordinates": [
          -166.49598846282802,
          1.500394307613239
        ]
      }
    },
    {
      "type": "Feature",
      "properties": {
        "norad_id": 66540,
        "name": "STARLINK-35818",
        "group": "last-30-days",
        "lat": -0.9462521289138728,
        "lon": -163.88037452158886,
        "alt_km": 414.5507314403221,
        "timestamp": "2025-12-19T08:58:48.081524+00:00",
        "meta_object_name": "STARLINK-35818",
        "meta_object_id": "2025-265AA",
        "meta_epoch": "2025-12-18T10:33:34.746336",
        "meta_mean_motion": 15.50612575,
        "meta_eccentricity": 0.00015071,
        "meta_inclination": 42.999,
        "meta_ra_of_asc_node": 20.5704,
        "meta_arg_of_pericenter": 269.1628,
        "meta_mean_anomaly": 90.9059,
        "meta_ephemeris_type": 0,
        "meta_classification_type": "U",
        "meta_norad_cat_id": 66540,
        "meta_element_set_no": 999,
        "meta_rev_at_epoch": 464,
        "meta_bstar": 0.0010984027,
        "meta_mean_motion_dot": 0.00064709,
        "meta_mean_motion_ddot": 0,
        "tle_line1": "1 66540U 25265AA  25352.43998549  .00064709  00000+0  10984-2 0  9998",
        "tle_line2": "2 66540  42.9990  20.5704 0001507 269.1628  90.9059 15.50612575  4644"
      },
      "geometry": {
        "type": "Point",
        "coordinates": [
          -163.88037452158886,
          -0.9462521289138728
        ]
      }
    },
    {
      "type": "Feature",
      "properties": {
        "norad_id": 66541,
        "name": "STARLINK-35796",
        "group": "last-30-days",
        "lat": -10.7975531071785,
        "lon": 3.7767501224415154,
        "alt_km": 444.30208851401585,
        "timestamp": "2025-12-19T08:58:48.081535+00:00",
        "meta_object_name": "STARLINK-35796",
        "meta_object_id": "2025-265AB",
        "meta_epoch": "2025-12-18T09:42:41.528448",
        "meta_mean_motion": 15.40722032,
        "meta_eccentricity": 0.00019637,
        "meta_inclination": 43.0035,
        "meta_ra_of_asc_node": 21.1735,
        "meta_arg_of_pericenter": 271.2311,
        "meta_mean_anomaly": 88.8321,
        "meta_ephemeris_type": 0,
        "meta_classification_type": "U",
        "meta_norad_cat_id": 66541,
        "meta_element_set_no": 999,
        "meta_rev_at_epoch": 463,
        "meta_bstar": 0.00085689606,
        "meta_mean_motion_dot": 0.00035685,
        "meta_mean_motion_ddot": 0,
        "tle_line1": "1 66541U 25265AB  25352.40464732  .00035685  00000+0  85690-3 0  9996",
        "tle_line2": "2 66541  43.0035  21.1735 0001963 271.2311  88.8321 15.40722032  4633"
      },
      "geometry": {
        "type": "Point",
        "coordinates": [
          3.7767501224415154,
          -10.7975531071785
        ]
      }
    },
    {
      "type": "Feature",
      "properties": {
        "norad_id": 66542,
        "name": "STARLINK-35833",
        "group": "last-30-days",
        "lat": 22.153145160971043,
        "lon": 41.371516904897064,
        "alt_km": 441.06131975889457,
        "timestamp": "2025-12-19T08:58:48.081546+00:00",
        "meta_object_name": "STARLINK-35833",
        "meta_object_id": "2025-265AC",
        "meta_epoch": "2025-12-19T00:00:02.000160",
        "meta_mean_motion": 15.40657238,
        "meta_eccentricity": 0.00010804,
        "meta_inclination": 43.0005,
        "meta_ra_of_asc_node": 17.6214,
        "meta_arg_of_pericenter": 255.9869,
        "meta_mean_anomaly": 220.0186,
        "meta_ephemeris_type": 0,
        "meta_classification_type": "U",
        "meta_norad_cat_id": 66542,
        "meta_element_set_no": 999,
        "meta_rev_at_epoch": 600,
        "meta_bstar": 0.0012929935,
        "meta_mean_motion_dot": 0.00054014,
        "meta_mean_motion_ddot": 0,
        "tle_line1": "1 66542U 25265AC  25353.00002315  .00054014  00000+0  12930-2 0  9992",
        "tle_line2": "2 66542  43.0005  17.6214 0001080 255.9869 220.0186 15.40657238  6007"
      },
      "geometry": {
        "type": "Point",
        "coordinates": [
          41.371516904897064,
          22.153145160971043
        ]
      }
    },
    {
      "type": "Feature",
      "properties": {
        "norad_id": 66543,
        "name": "STARLINK-35315",
        "group": "last-30-days",
        "lat": 42.703763252948974,
        "lon": 113.26305493798492,
        "alt_km": 438.35258486967723,
        "timestamp": "2025-12-19T08:58:48.081556+00:00",
        "meta_object_name": "STARLINK-35315",
        "meta_object_id": "2025-265AD",
        "meta_epoch": "2025-12-19T00:00:02.000160",
        "meta_mean_motion": 15.40660762,
        "meta_eccentricity": 0.00016408,
        "meta_inclination": 42.9999,
        "meta_ra_of_asc_node": 17.4697,
        "meta_arg_of_pericenter": 263.9996,
        "meta_mean_anomaly": 274.1882,
        "meta_ephemeris_type": 0,
        "meta_classification_type": "U",
        "meta_norad_cat_id": 66543,
        "meta_element_set_no": 999,
        "meta_rev_at_epoch": 589,
        "meta_bstar": 0.0013215973,
        "meta_mean_motion_dot": 0.00055232,
        "meta_mean_motion_ddot": 0,
        "tle_line1": "1 66543U 25265AD  25353.00002315  .00055232  00000+0  13216-2 0  9994",
        "tle_line2": "2 66543  42.9999  17.4697 0001640 263.9996 274.1882 15.40660762  5898"
      },
      "geometry": {
        "type": "Point",
        "coordinates": [
          113.26305493798492,
          42.703763252948974
        ]
      }
    }
  ]
}